{"type": "FeatureCollection", "features": [ {"type": "Feature", "properties": {"norad_id": 60453, "name": "LEGION 4", "group": "resource", "lat": 40.15647313123004, "lon": 78.36999168700844, "alt_km": 512.6381661870219, "timestamp": "2025-12-16T15:45:50.672475+00:00", "meta": {"OBJECT_NAME": "LEGION 4", "OBJECT_ID": "2024-146B", "EPOCH": "2025-12-15T14:10:11.557920", "MEAN_MOTION": 15.15857492, "ECCENTRICITY": 0.00092316, "INCLINATION": 45.0399, "RA_OF_ASC_NODE": 26.6098, "ARG_OF_PERICENTER": 325.7639, "MEAN_ANOMALY": 34.2644, "EPHEMERIS_TYPE": 0, "CLASSIFICATION_TYPE": "U", "NORAD_CAT_ID": 60453, "ELEMENT_SET_NO": 999, "REV_AT_EPOCH": 7301, "BSTAR": 0.00022381169, "MEAN_MOTION_DOT": 4.095e-05, "MEAN_MOTION_DDOT": 0}, "tle": {"line1": "1 60453U 24146B   25349.59041155  .00004095  00000+0  22381-3 0  9994", "line2": "2 60453  45.0399  26.6098 0009231 325.7639  34.2644 15.15857492 73012"}}, "geometry": {"type": "Point", "coordinates": [78.36999168700844, 40.15647313123004]}}, {"type": "Feature", "properties": {"norad_id": 60989, "name": "SENTINEL-2C", "group": "resource", "lat": 8.535294241008156, "lon": 61.78636641701108, "alt_km": 790.6858681528738, "timestamp": "2025-12-16T15:45:50.672486+00:00", "meta": {"OBJECT_NAME": "SENTINEL-2C", "OBJECT_ID": "2024-157A", "EPOCH": "2025-12-15T19:35:02.402592", "MEAN_MOTION": 14.30818743, "ECCENTRICITY": 0.00012345, "INCLINATION": 98.5681, "RA_OF_ASC_NODE": 62.2543, "ARG_OF_PERICENTER": 97.0546, "MEAN_ANOMALY": 263.0777, "EPHEMERIS_TYPE": 0, "CLASSIFICATION_TYPE": "U", "NORAD_CAT_ID": 60989, "ELEMENT_SET_NO": 999, "REV_AT_EPOCH": 6676, "BSTAR": 6.7533225e-05, "MEAN_MOTION_DOT": 1.33e-06, "MEAN_MOTION_DDOT": 0}, "tle": {"line1": "1 60989U 24157A   25349.81600003  .00000133  00000+0  67533-4 0  9996", "line2": "2 60989  98.5681  62.2543 0001234  97.0546 263.0777 14.30818743 66760"}}, "geometry": {"type": "Point", "coordinates": [61.78636641701108, 8.535294241008156]}}, {"type": "Feature", "properties": {"norad_id": 61735, "name": "IONOSFERA-M 1", "group": "resource", "lat": 18.59442316224063, "lon": 43.44133427238999, "alt_km": 816.8891705164306, "timestamp": "2025-12-16T15:45:50.672497+00:00", "meta": {"OBJECT_NAME": "IONOSFERA-M 1", "OBJECT_ID": "2024-199A", "EPOCH": "2025-12-15T22:07:50.870784", "MEAN_MOTION": 14.22714696, "ECCENTRICITY": 8.148e-05, "INCLINATION": 98.7402, "RA_OF_ASC_NODE": 219.7459, "ARG_OF_PERICENTER": 17.7991, "MEAN_ANOMALY": 342.3215, "EPHEMERIS_TYPE": 0, "CLASSIFICATION_TYPE": "U", "NORAD_CAT_ID": 61735, "ELEMENT_SET_NO": 999, "REV_AT_EPOCH": 10164, "BSTAR": 4.5056127e-05, "MEAN_MOTION_DOT": 5.7e-07, "MEAN_MOTION_DDOT": 0}, "tle": {"line1": "1 61735U 24199A   25349.92211656  .00000057  00000+0  45056-4 0  9997", "line2": "2 61735  98.7402 219.7459 0000814  17.7991 342.3215 14.22714696101642"}}, "geometry": {"type": "Point", "coordinates": [43.44133427238999, 18.59442316224063]}}, {"type": "Feature", "properties": {"norad_id": 61736, "name": "IONOSFERA-M 2", "group": "resource", "lat": -16.177685847169503, "lon": -137.055050291089, "alt_km": 821.5738950893283, "timestamp": "2025-12-16T15:45:50.672509+00:00", "meta": {"OBJECT_NAME": "IONOSFERA-M 2", "OBJECT_ID": "2024-199B", "EPOCH": "2025-12-15T22:57:43.919712", "MEAN_MOTION": 14.22716879, "ECCENTRICITY": 0.00017183, "INCLINATION": 98.7401, "RA_OF_ASC_NODE": 219.6927, "ARG_OF_PERICENTER": 106.4372, "MEAN_ANOMALY": 253.6994, "EPHEMERIS_TYPE": 0, "CLASSIFICATION_TYPE": "U", "NORAD_CAT_ID": 61736, "ELEMENT_SET_NO": 999, "REV_AT_EPOCH": 10477, "BSTAR": 4.1540174e-05, "MEAN_MOTION_DOT": 4.9e-07, "MEAN_MOTION_DDOT": 0}, "tle": {"line1": "1 61736U 24199B   25349.95675833  .00000049  00000+0  41540-4 0  9997", "line2": "2 61736  98.7401 219.6927 0001718 106.4372 253.6994 14.22716879104774"}}, "geometry": {"type": "Point", "coordinates": [-137.055050291089, -16.177685847169503]}}, {"type": "Feature", "properties": {"norad_id": 63772, "name": "BIOMASS", "group": "resource", "lat": 81.38475414638394, "lon": 106.15307864960484, "alt_km": 660.6959983722836, "timestamp": "2025-12-16T15:45:50.672519+00:00", "meta": {"OBJECT_NAME": "BIOMASS", "OBJECT_ID": "2025-090A", "EPOCH": "2025-12-15T18:05:46.959072", "MEAN_MOTION": 14.67534088, "ECCENTRICITY": 0.00011465, "INCLINATION": 98.0695, "RA_OF_ASC_NODE": 174.7197, "ARG_OF_PERICENTER": 82.2368, "MEAN_ANOMALY": 277.8967, "EPHEMERIS_TYPE": 0, "CLASSIFICATION_TYPE": "U", "NORAD_CAT_ID": 63772, "ELEMENT_SET_NO": 999, "REV_AT_EPOCH": 3378, "BSTAR": 0.00020426914, "MEAN_MOTION_DOT": 1.11e-05, "MEAN_MOTION_DDOT": 0}, "tle": {"line1": "1 63772U 25090A   25349.75401573  .00001110  00000+0  20427-3 0  9996", "line2": "2 63772  98.0695 174.7197 0001146  82.2368 277.8967 14.67534088 33784"}}, "geometry": {"type": "Point", "coordinates": [106.15307864960484, 81.38475414638394]}}, {"type": "Feature", "properties": {"norad_id": 64694, "name": "GOSAT-GW (IBUKI GW)", "group": "resource", "lat": -62.14738695568308, "lon": -58.38073313367527, "alt_km": 676.8798611144412, "timestamp": "2025-12-16T15:45:50.672529+00:00", "meta": {"OBJECT_NAME": "GOSAT-GW (IBUKI GW)", "OBJECT_ID": "2025-141A", "EPOCH": "2025-12-15T22:03:07.280064", "MEAN_MOTION": 14.67559128, "ECCENTRICITY": 0.0001434, "INCLINATION": 98.0428, "RA_OF_ASC_NODE": 285.374, "ARG_OF_PERICENTER": 84.7983, "MEAN_ANOMALY": 275.3385, "EPHEMERIS_TYPE": 0, "CLASSIFICATION_TYPE": "U", "NORAD_CAT_ID": 64694, "ELEMENT_SET_NO": 999, "REV_AT_EPOCH": 2496, "BSTAR": 0.00017257581, "MEAN_MOTION_DOT": 9.31e-06, "MEAN_MOTION_DDOT": 0}, "tle": {"line1": "1 64694U 25141A   25349.91883426  .00000931  00000+0  17258-3 0  9994", "line2": "2 64694  98.0428 285.3740 0001434  84.7983 275.3385 14.67559128 24964"}}, "geometry": {"type": "Point", "coordinates": [-58.38073313367527, -62.14738695568308]}}, {"type": "Feature", "properties": {"norad_id": 64876, "name": "IONOSFERA-M 3", "group": "resource", "lat": 9.76192128721195, "lon": -49.076143596857214, "alt_km": 820.9084436325074, "timestamp": "2025-12-16T15:45:50.672540+00:00", "meta": {"OBJECT_NAME": "IONOSFERA-M 3", "OBJECT_ID": "2025-155A", "EPOCH": "2025-12-15T22:49:26.196960", "MEAN_MOTION": 14.21441875, "ECCENTRICITY": 0.00021557, "INCLINATION": 98.5786, "RA_OF_ASC_NODE": 311.7262, "ARG_OF_PERICENTER": 54.9797, "MEAN_ANOMALY": 305.1583, "EPHEMERIS_TYPE": 0, "CLASSIFICATION_TYPE": "U", "NORAD_CAT_ID": 64876, "ELEMENT_SET_NO": 999, "REV_AT_EPOCH": 2037, "BSTAR": 5.5953214e-05, "MEAN_MOTION_DOT": 8e-07, "MEAN_MOTION_DDOT": 0}, "tle": {"line1": "1 64876U 25155A   25349.95099765  .00000080  00000+0  55953-4 0  9990", "line2": "2 64876  98.5786 311.7262 0002155  54.9797 305.1583 14.21441875 20376"}}, "geometry": {"type": "Point", "coordinates": [-49.076143596857214, 9.76192128721195]}}, {"type": "Feature", "properties": {"norad_id": 64877, "name": "IONOSFERA-M 4", "group": "resource", "lat": -10.684701745719376, "lon": 130.6995124834093, "alt_km": 825.4266239146655, "timestamp": "2025-12-16T15:45:50.672550+00:00", "meta": {"OBJECT_NAME": "IONOSFERA-M 4", "OBJECT_ID": "2025-155B", "EPOCH": "2025-12-15T21:58:33.919968", "MEAN_MOTION": 14.21442966, "ECCENTRICITY": 0.00015322, "INCLINATION": 98.5785, "RA_OF_ASC_NODE": 311.6114, "ARG_OF_PERICENTER": 60.1709, "MEAN_ANOMALY": 299.9621, "EPHEMERIS_TYPE": 0, "CLASSIFICATION_TYPE": "U", "NORAD_CAT_ID": 64877, "ELEMENT_SET_NO": 999, "REV_AT_EPOCH": 2036, "BSTAR": 5.5737569e-05, "MEAN_MOTION_DOT": 7.9e-07, "MEAN_MOTION_DDOT": 0}, "tle": {"line1": "1 64877U 25155B   25349.91567037  .00000079  00000+0  55738-4 0  9998", "line2": "2 64877  98.5785 311.6114 0001532  60.1709 299.9621 14.21442966 20365"}}, "geometry": {"type": "Point", "coordinates": [130.6995124834093, -10.684701745719376]}}, {"type": "Feature", "properties": {"norad_id": 64899, "name": "MICROCARB", "group": "resource", "lat": -22.094576684423394, "lon": 69.21314864630259, "alt_km": 670.9003239020212, "timestamp": "2025-12-16T15:45:50.672561+00:00", "meta": {"OBJECT_NAME": "MICROCARB", "OBJECT_ID": "2025-156A", "EPOCH": "2025-12-15T18:39:28.687968", "MEAN_MOTION": 14.72061935, "ECCENTRICITY": 0.00173209, "INCLINATION": 98.0024, "RA_OF_ASC_NODE": 65.0741, "ARG_OF_PERICENTER": 135.5274, "MEAN_ANOMALY": 224.7327, "EPHEMERIS_TYPE": 0, "CLASSIFICATION_TYPE": "U", "NORAD_CAT_ID": 64899, "ELEMENT_SET_NO": 999, "REV_AT_EPOCH": 2098, "BSTAR": 0.00011696887, "MEAN_MOTION_DOT": 6.87e-06, "MEAN_MOTION_DDOT": 0}, "tle": {"line1": "1 64899U 25156A   25349.77741537  .00000687  00000+0  11697-3 0  9996", "line2": "2 64899  98.0024  65.0741 0017320 135.5274 224.7327 14.72061935 20988"}}, "geometry": {"type": "Point", "coordinates": [69.21314864630259, -22.094576684423394]}}, {"type": "Feature", "properties": {"norad_id": 64900, "name": "CO3D 3", "group": "resource", "lat": -22.748299138822567, "lon": 70.10634343503655, "alt_km": 510.9504890493008, "timestamp": "2025-12-16T15:45:50.672571+00:00", "meta": {"OBJECT_NAME": "CO3D 3", "OBJECT_ID": "2025-156B", "EPOCH": "2025-12-13T16:46:35.865408", "MEAN_MOTION": 15.2020033, "ECCENTRICITY": 0.00013843, "INCLINATION": 97.4344, "RA_OF_ASC_NODE": 64.0523, "ARG_OF_PERICENTER": 93.9049, "MEAN_ANOMALY": 266.2345, "EPHEMERIS_TYPE": 0, "CLASSIFICATION_TYPE": "U", "NORAD_CAT_ID": 64900, "ELEMENT_SET_NO": 999, "REV_AT_EPOCH": 2135, "BSTAR": 0.00015817929, "MEAN_MOTION_DOT": 3.358e-05, "MEAN_MOTION_DDOT": 0}, "tle": {"line1": "1 64900U 25156B   25347.69902622  .00003358  00000+0  15818-3 0  9999", "line2": "2 64900  97.4344  64.0523 0001384  93.9049 266.2345 15.20200330 21357"}}, "geometry": {"type": "Point", "coordinates": [70.10634343503655, -22.748299138822567]}}]}